OBJECT_NAME,OBJECT_ID,EPOCH,MEAN_MOTION,ECCENTRICITY,INCLINATION,RA_OF_ASC_NODE,ARG_OF_PERICENTER,MEAN_ANOMALY,EPHEMERIS_TYPE,CLASSIFICATION_TYPE,NORAD_CAT_ID,ELEMENT_SET_NO,REV_AT_EPOCH,BSTAR,MEAN_MOTION_DOT,MEAN_MOTION_DDOT
EYESAT A (AO-27),1993-061C,2026-07-01T02:59:14.627040,14.30945970,.0009386,98.6876,249.5326,63.7005,296.5141,0,U,22825,999,70899,.63747E-4,.123E-5,0
ITAMSAT (IO-26),1993-061D,2026-07-01T02:23:36.515616,14.31373203,.0009707,98.6824,249.4269,48.3625,311.8388,0,U,22826,999,70930,.62938E-4,.122E-5,0
RADIO ROSTO (RS15),1994-085A,2026-06-30T22:50:07.821024,11.27583409,.0156409,64.8181,280.9561,1.3290,358.8021,0,U,23439,999,29745,.43208E-3,-.27E-6,0
JAS-2 (FO-29),1996-046B,2026-07-01T03:16:50.797056,13.53274950,.0350824,98.5226,29.0970,60.3393,303.2198,0,U,24278,999,47505,.10098E-4,-.23E-6,0
FORTE,1997-047A,2026-07-01T04:11:34.816992,14.27950717,.0024598,69.9543,342.4257,260.4688,99.3655,0,U,24920,999,50068,.97382E-4,.184E-5,0
NOAA 15,1998-030A,2026-07-01T04:59:05.792352,14.27150563,.0009261,98.5062,202.4613,311.1021,48.9359,0,U,25338,999,46329,.6969E-4,.127E-5,0
TECHSAT 1B (GO-32),1998-043D,2026-06-30T23:20:23.293248,14.24431061,.0001716,99.0073,175.0791,137.9285,222.2024,0,U,25397,999,45329,.46975E-4,.62E-6,0
ISS (ZARYA),1998-067A,2026-07-01T02:54:32.423040,15.49499881,.0004254,51.6311,231.1150,253.5517,106.5005,0,U,25544,999,57391,.13146E-3,.6925E-4,0
ORSTED,1999-008B,2026-06-30T23:10:24.308832,14.51819584,.0132908,96.4816,86.3505,141.8945,219.1746,0,U,25635,999,44396,.12406E-3,.529E-5,0
LANDSAT 7,1999-020A,2026-07-01T04:29:50.477856,14.63928890,.0001759,97.8581,185.1813,82.7401,339.7861,0,U,25682,999,44789,.99567E-4,.476E-5,0
ORBCOMM FM36,1999-065E,2026-07-01T01:28:00.702336,14.39224279,.0004076,45.0387,93.7209,24.5756,335.5287,0,U,25984,999,38898,.39245E-3,.1085E-4,0
DMSP 5D-3 F15 (USA 147),1999-067A,2026-07-01T04:49:52.758048,14.17568300,.0009258,98.9954,220.9309,327.8623,104.3710,0,U,25991,999,37263,.10248E-3,.162E-5,0
OPAL (OO-38),2000-004C,2026-07-01T02:14:30.846048,14.37969949,.003581,100.1912,121.4809,357.0206,3.0757,0,U,26063,999,38528,.72468E-4,.161E-5,0
IMAGE,2000-017A,2026-06-27T08:30:03.789792,1.68666239,.74248625,94.2374,315.5053,286.6524,9.3238,0,U,26113,999,16167,0,-.86E-6,0
CLUSTER II-FM7 (SAMBA),2000-041A,2026-07-02T18:10:50.311200,0.44834504,.907287,149.8840,53.4423,270.8480,359.6360,0,U,26410,999,2037,0,.12787E-3,0
CLUSTER II-FM8 (TANGO),2000-045B,2026-06-28T16:41:34.777824,0.44420805,.90720795,150.1134,53.8490,271.0645,2.4192,0,U,26464,999,2036,0,.10301E-3,0
MEGSAT-1,2000-057B,2026-07-01T00:39:13.344192,15.05566525,.0042664,64.5500,24.7605,282.1666,77.4673,0,U,26546,999,39974,.22289E-3,.3104E-4,0
PHASE 3D (AO-40),2000-072B,2026-06-30T20:10:20.430336,1.25588592,.7931703,9.4086,348.7836,182.7641,166.3771,0,U,26609,999,11768,0,-.111E-5,0
ODIN,2001-007A,2026-07-01T02:32:38.138208,15.81396210,.000573,97.3785,223.9921,134.8411,225.3323,0,U,26702,999,39159,.15804E-2,.322699E-2,0
OMNI-M1,2001-026A,2026-06-30T11:27:51.374016,3.92401966,.0013842,44.8272,242.2006,55.9165,304.2837,0,U,26857,999,20609,0,.8E-7,0
PCSAT (NO-44),2001-043C,2026-07-01T03:04:51.231936,14.31960658,.0006023,67.0490,208.2135,265.4481,94.5932,0,U,26931,999,29244,.72408E-4,.111E-5,0
PROBA-1,2001-049B,2026-07-01T03:24:19.143936,15.07557440,.0056695,97.9594,191.1617,76.2663,284.4866,0,U,26958,999,34572,.16898E-3,.2593E-4,0
SPOT 5,2002-021A,2026-07-01T01:33:40.161024,14.54760321,.0128453,97.9839,220.3134,232.8989,126.0413,0,U,27421,999,26486,.89679E-4,.379E-5,0
FENGYUN 1D,2002-024B,2026-07-01T03:00:33.840288,14.10226305,.0015047,98.9512,232.3921,199.9919,160.0663,0,U,27431,999,24144,.58509E-4,.59E-6,0
SAUDISAT 1C (SO-50),2002-058C,2026-07-01T04:20:46.405824,14.83076090,.0074926,64.5520,85.6885,259.8630,99.4018,0,U,27607,999,26653,.1394E-3,.1037E-4,0
CORIOLIS,2003-001A,2026-07-01T00:11:58.779744,14.19948591,.0014191,98.7127,188.6821,168.3829,191.7678,0,U,27640,999,21618,.7163E-4,.109E-5,0
CUTE-1 (CO-55),2003-031E,2026-07-01T00:23:45.199104,14.24344253,.0010358,98.6736,190.4014,139.6861,220.5088,0,U,27844,999,19364,.15975E-3,.326E-5,0
CUBESAT XI-IV (CO-57),2003-031J,2026-07-01T00:17:07.885248,14.23628222,.0009846,98.6768,190.0986,157.0958,203.0662,0,U,27848,999,19334,.13985E-3,.275E-5,0
MOZHAETS 4 (RS22),2003-042A,2026-07-01T05:03:11.277216,14.73489522,.0010217,98.3465,6.9653,219.8641,251.9051,0,U,27939,999,21761,.59791E-4,.335E-5,0
IRS-P6 (RESOURCESAT-1),2003-046A,2026-07-01T05:37:28.233120,14.36167055,.006302,98.1897,218.0599,300.8407,133.1223,0,U,28051,999,18254,.5237E-4,.115E-5,0
