{"format":"tle-catalog-v1","generatedAt":"2026-07-01T14:19:31.438Z","count":19018,"entries":[{"name":"CLUSTER II-FM7 (SAMBA)","line1":"1 26410U 00041A   26183.75752675  .00012787  00000+0  00000+0 0  9995","line2":"2 26410 149.8840  53.4423 9072870 270.8480 359.6360  0.44834504 20378"},{"name":"CLUSTER II-FM8 (TANGO)","line1":"1 26464U 00045B   26179.69554141  .00010301  00000+0  00000+0 0  9994","line2":"2 26464 150.1134  53.8490 9072079 271.0645   2.4192  0.44420805 20363"},{"name":"CORIOLIS","line1":"1 27640U 03001A   26182.00831921  .00000109  00000+0  71630-4 0  9996","line2":"2 27640  98.7127 188.6821 0014191 168.3829 191.7678 14.19948591216180"},{"name":"CUBESAT XI-IV (CO-57)","line1":"1 27848U 03031J   26182.01189682  .00000275  00000+0  13985-3 0  9992","line2":"2 27848  98.6768 190.0986 0009846 157.0958 203.0662 14.23628222193341"},{"name":"CUTE-1 (CO-55)","line1":"1 27844U 03031E   26182.01649536  .00000326  00000+0  15975-3 0  9995","line2":"2 27844  98.6736 190.4014 0010358 139.6861 220.5088 14.24344253193646"},{"name":"DMSP 5D-3 F15 (USA 147)","line1":"1 25991U 99067A   26182.20130507  .00000162  00000+0  10248-3 0  9990","line2":"2 25991  98.9954 220.9309 0009258 327.8623 104.3710 14.17568300372634"},{"name":"EYESAT A (AO-27)","line1":"1 22825U 93061C   26182.12447485  .00000123  00000+0  63747-4 0  9998","line2":"2 22825  98.6876 249.5326 0009386  63.7005 296.5141 14.30945970708996"},{"name":"FENGYUN 1D","line1":"1 27431U 02024B   26182.12539167  .00000059  00000+0  58509-4 0  9992","line2":"2 27431  98.9512 232.3921 0015047 199.9919 160.0663 14.10226305241440"},{"name":"FORTE","line1":"1 24920U 97047A   26182.17470853  .00000184  00000+0  97382-4 0  9993","line2":"2 24920  69.9543 342.4257 0024598 260.4688  99.3655 14.27950717500683"},{"name":"IMAGE","line1":"1 26113U 00017A   26178.35421053 -.00000086  00000+0  00000+0 0  9991","line2":"2 26113  94.2374 315.5053 7424862 286.6524   9.3238  1.68666239161675"},{"name":"IRS-P6 (RESOURCESAT-1)","line1":"1 28051U 03046A   26182.23435455  .00000115  00000+0  52370-4 0  9996","line2":"2 28051  98.1897 218.0599 0063020 300.8407 133.1223 14.36167055182540"},{"name":"ISS (ZARYA)","line1":"1 25544U 98067A   26182.12120860  .00006925  00000+0  13146-3 0  9998","line2":"2 25544  51.6311 231.1150 0004254 253.5517 106.5005 15.49499881573915"},{"name":"ITAMSAT (IO-26)","line1":"1 22826U 93061D   26182.09972819  .00000122  00000+0  62938-4 0  9999","line2":"2 22826  98.6824 249.4269 0009707  48.3625 311.8388 14.31373203709304"},{"name":"JAS-2 (FO-29)","line1":"1 24278U 96046B   26182.13669904 -.00000023  00000+0  10098-4 0  9992","line2":"2 24278  98.5226  29.0970 0350824  60.3393 303.2198 13.53274950475056"},{"name":"LANDSAT 7","line1":"1 25682U 99020A   26182.18738979  .00000476  00000+0  99567-4 0  9990","line2":"2 25682  97.8581 185.1813 0001759  82.7401 339.7861 14.63928890447893"},{"name":"MEGSAT-1","line1":"1 26546U 00057B   26182.02723778  .00003104  00000+0  22289-3 0  9993","line2":"2 26546  64.5500  24.7605 0042664 282.1666  77.4673 15.05566525399748"},{"name":"MOZHAETS 4 (RS22)","line1":"1 27939U 03042A   26182.21054719  .00000335  00000+0  59791-4 0  9992","line2":"2 27939  98.3465   6.9653 0010217 219.8641 251.9051 14.73489522217613"},{"name":"NOAA 15","line1":"1 25338U 98030A   26182.20770593  .00000127  00000+0  69690-4 0  9996","line2":"2 25338  98.5062 202.4613 0009261 311.1021  48.9359 14.27150563463294"},{"name":"ODIN","line1":"1 26702U 01007A   26182.10599697  .00322699  00000+0  15804-2 0  9990","line2":"2 26702  97.3785 223.9921 0005730 134.8411 225.3323 15.81396210391596"},{"name":"OMNI-M1","line1":"1 26857U 01026A   26181.47767794  .00000008  00000+0  00000+0 0  9992","line2":"2 26857  44.8272 242.2006 0013842  55.9165 304.2837  3.92401966206096"},{"name":"OPAL (OO-38)","line1":"1 26063U 00004C   26182.09341257  .00000161  00000+0  72468-4 0  9999","line2":"2 26063 100.1912 121.4809 0035810 357.0206   3.0757 14.37969949385287"},{"name":"ORBCOMM FM36","line1":"1 25984U 99065E   26182.06111924  .00001085  00000+0  39245-3 0  9999","line2":"2 25984  45.0387  93.7209 0004076  24.5756 335.5287 14.39224279388985"},{"name":"ORSTED","line1":"1 25635U 99008B   26181.96555913  .00000529  00000+0  12406-3 0  9999","line2":"2 25635  96.4816  86.3505 0132908 141.8945 219.1746 14.51819584443961"},{"name":"PCSAT (NO-44)","line1":"1 26931U 01043C   26182.12837074  .00000111  00000+0  72408-4 0  9997","line2":"2 26931  67.0490 208.2135 0006023 265.4481  94.5932 14.31960658292447"},{"name":"PHASE 3D (AO-40)","line1":"1 26609U 00072B   26181.84051424 -.00000111  00000+0  00000+0 0  9990","line2":"2 26609   9.4086 348.7836 7931703 182.7641 166.3771  1.25588592117689"},{"name":"PROBA-1","line1":"1 26958U 01049B   26182.14188824  .00002593  00000+0  16898-3 0  9992","line2":"2 26958  97.9594 191.1617 0056695  76.2663 284.4866 15.07557440345729"},{"name":"RADIO ROSTO (RS15)","line1":"1 23439U 94085A   26181.95147941 -.00000027  00000+0  43208-3 0  9994","line2":"2 23439  64.8181 280.9561 0156409   1.3290 358.8021 11.27583409297456"},{"name":"SAUDISAT 1C (SO-50)","line1":"1 27607U 02058C   26182.18109266  .00001037  00000+0  13940-3 0  9999","line2":"2 27607  64.5520  85.6885 0074926 259.8630  99.4018 14.83076090266538"},{"name":"SPOT 5","line1":"1 27421U 02021A   26182.06504816  .00000379  00000+0  89679-4 0  9991","line2":"2 27421  97.9839 220.3134 0128453 232.8989 126.0413 14.54760321264868"},{"name":"TECHSAT 1B (GO-32)","line1":"1 25397U 98043D   26181.97249182  .00000062  00000+0  46975-4 0  9992","line2":"2 25397  99.0073 175.0791 0001716 137.9285 222.2024 14.24431061453299"}]}